NORAD_CAT_ID,OBJECT_NAME,OBJECT_TYPE,EPOCH,MEAN_MOTION,ECCENTRICITY,INCLINATION,RA_OF_ASC_NODE,ARG_OF_PERICENTER,MEAN_ANOMALY,BSTAR,MEAN_MOTION_DOT,MEAN_MOTION_DDOT,TLE_LINE0,TLE_LINE1,TLE_LINE2,SEMIMAJOR_AXIS,PERIOD,APOGEE,PERIGEE,DECAYED
51878.0,STARLINK-3575,PAYLOAD,2023-05-02 17:01:49,15.08839651,0.000125,53.2186,6.7457,105.1147,254.9983,7.0803e-05,8.39e-06,0.0,0 STARLINK-3575,1 51878U 22022AC  23122.70960080  .00000839  00000-0  70803-4 0  9999,2 51878  53.2186   6.7457 0001250 105.1147 254.9983 15.08839651 65818,6917.881,95.438,540.611,538.882,0.0
51878.0,STARLINK-3575,PAYLOAD,2023-05-02 20:12:35,15.08841028,0.0001233,53.2187,6.1511,100.7016,259.4115,3.4605e-05,2.63e-06,0.0,0 STARLINK-3575,1 51878U 22022AC  23122.84208095  .00000263  00000-0  34605-4 0  9996,2 51878  53.2187   6.1511 0001233 100.7016 259.4115 15.08841028 65831,6917.877,95.437,540.595,538.889,0.0
51878.0,STARLINK-3575,PAYLOAD,2023-05-03 08:55:41,15.08837486,0.0001009,53.2174,3.7759,93.8369,266.2738,2.6096e-05,1.28e-06,0.0,0 STARLINK-3575,1 51878U 22022AC  23123.37200374  .00000128  00000-0  26096-4 0  9992,2 51878  53.2174   3.7759 0001009  93.8369 266.2738 15.08837486 65917,6917.888,95.438,540.451,539.055,0.0
51878.0,STARLINK-3575,PAYLOAD,2023-05-03 20:03:23,15.08841844,9.92e-05,53.2178,1.6958,96.1862,263.9243,-3.7895e-05,-8.91e-06,0.0,0 STARLINK-3575,1 51878U 22022AC  23123.83568411 -.00000891  00000-0 -37895-4 0  9990,2 51878  53.2178   1.6958 0000992  96.1862 263.9243 15.08841844 65988,6917.875,95.437,540.426,539.053,0.0
51878.0,STARLINK-3575,PAYLOAD,2023-05-03 21:38:46,15.08842201,9.95e-05,53.2178,1.3985,95.9269,264.1837,-3.461e-05,-8.39e-06,0.0,0 STARLINK-3575,1 51878U 22022AC  23123.90192371 -.00000839  00000-0 -34610-4 0  9990,2 51878  53.2178   1.3985 0000995  95.9269 264.1837 15.08842201 65997,6917.874,95.437,540.427,539.05,0.0
51878.0,STARLINK-3575,PAYLOAD,2023-05-04 08:46:28,15.08841496,9.77e-05,53.2179,359.3171,92.9465,267.1639,-1.771e-05,-5.7e-06,0.0,0 STARLINK-3575,1 51878U 22022AC  23124.36560329 -.00000570  00000-0 -17710-4 0  9997,2 51878  53.2179 359.3171 0000977  92.9465 267.1639 15.08841496 66063,6917.876,95.437,540.417,539.065,0.0
51878.0,STARLINK-3575,PAYLOAD,2023-05-04 19:54:10,15.08835962,0.0001047,53.2176,357.2351,87.799,272.3122,5.49e-05,5.86e-06,0.0,0 STARLINK-3575,1 51878U 22022AC  23124.82928748  .00000586  00000-0  54900-4 0  9998,2 51878  53.2176 357.2351 0001047  87.7990 272.3122 15.08835962 66135,6917.893,95.438,540.482,539.033,0.0
51878.0,STARLINK-3575,PAYLOAD,2023-05-04 23:04:56,15.08841168,0.0001091,53.2178,356.6396,84.1336,275.9781,8.1412e-05,1.008e-05,0.0,0 STARLINK-3575,1 51878U 22022AC  23124.96176408  .00001008  00000-0  81412-4 0  9999,2 51878  53.2178 356.6396 0001091  84.1336 275.9781 15.08841168 66150,6917.877,95.437,540.497,538.987,0.0
51878.0,STARLINK-3575,PAYLOAD,2023-05-05 21:20:20,15.08835055,9.65e-05,53.2161,352.4791,90.2335,269.8767,8.0734e-05,9.97e-06,0.0,0 STARLINK-3575,1 51878U 22022AC  23125.88913124  .00000997  00000-0  80734-4 0  9997,2 51878  53.2161 352.4791 0000965  90.2335 269.8767 15.08835055 66290,6917.896,95.438,540.428,539.093,0.0
51878.0,STARLINK-3575,PAYLOAD,2023-05-06 00:31:07,15.08836281,9.22e-05,53.2161,351.8844,97.4307,262.679,3.5775e-05,2.82e-06,0.0,0 STARLINK-3575,1 51878U 22022AC  23126.02161179  .00000282  00000-0  35775-4 0  9991,2 51878  53.2161 351.8844 0000922  97.4307 262.6790 15.08836281 66315,6917.892,95.438,540.395,539.119,0.0
51878.0,STARLINK-3575,PAYLOAD,2023-05-06 21:11:07,15.08851554,9.44e-05,53.2171,348.0167,93.227,266.883,0.00015961,2.254e-05,0.0,0 STARLINK-3575,1 51878U 22022AC  23126.88271996  .00002254  00000-0  15961-3 0  9999,2 51878  53.2171 348.0167 0000944  93.2270 266.8830 15.08851554 66444,6917.845,95.437,540.363,539.057,0.0
51878.0,STARLINK-3575,PAYLOAD,2023-05-07 21:01:54,15.08843258,8.7e-05,53.2176,343.5562,82.8524,277.2567,0.00011121,1.483e-05,0.0,0 STARLINK-3575,1 51878U 22022AC  23127.87632637  .00001483  00000-0  11121-3 0  9999,2 51878  53.2176 343.5562 0000870  82.8524 277.2567 15.08843258 66593,6917.87,95.437,540.337,539.134,0.0
51878.0,STARLINK-3575,PAYLOAD,2023-05-08 20:52:39,15.08868313,6.78e-05,53.2177,339.0945,92.1749,267.932,0.00027029,4.02e-05,0.0,0 STARLINK-3575,1 51878U 22022AC  23128.86990283  .00004020  00000-0  27029-3 0  9997,2 51878  53.2177 339.0945 0000678  92.1749 267.9320 15.08868313 66747,6917.794,95.436,540.128,539.19,0.0
51878.0,STARLINK-3575,PAYLOAD,2023-05-09 06:24:58,15.0886051,8.3e-05,53.2169,337.3111,87.7719,272.3369,2.7303e-05,1.47e-06,0.0,0 STARLINK-3575,1 51878U 22022AC  23129.26734846  .00000147  00000-0  27303-4 0  9995,2 51878  53.2169 337.3111 0000830  87.7719 272.3369 15.08860510 66802,6917.818,95.436,540.257,539.109,0.0
51878.0,STARLINK-3575,PAYLOAD,2023-05-10 06:15:48,15.08832135,9.42e-05,53.2168,332.8513,73.0067,287.1029,2.1458e-05,5.4e-07,0.0,0 STARLINK-3575,1 51878U 22022AC  23130.26097462  .00000054  00000-0  21458-4 0  9995,2 51878  53.2168 332.8513 0000942  73.0067 287.1029 15.08832135 66950,6917.904,95.438,540.421,539.118,0.0
51878.0,STARLINK-3575,PAYLOAD,2023-05-10 20:34:15,15.08840608,9.68e-05,53.2155,330.1754,76.6688,283.4412,0.00012043,1.629e-05,0.0,0 STARLINK-3575,1 51878U 22022AC  23130.85712816  .00001629  00000-0  12043-3 0  9995,2 51878  53.2155 330.1754 0000968  76.6688 283.4412 15.08840608 67040,6917.879,95.438,540.413,539.074,0.0
51878.0,STARLINK-3575,PAYLOAD,2023-05-11 10:52:44,15.08824873,9.16e-05,53.2158,327.4988,75.8778,284.2315,0.00036989,5.602e-05,0.0,0 STARLINK-3575,1 51878U 22022AC  23131.45329834  .00005602  00000-0  36989-3 0  9996,2 51878  53.2158 327.4988 0000916  75.8778 284.2315 15.08824873 67132,6917.927,95.439,540.425,539.158,0.0
51878.0,STARLINK-3575,PAYLOAD,2023-05-11 17:14:17,15.08836386,0.0001001,53.2159,326.3096,76.982,283.1284,0.00025057,3.702e-05,0.0,0 STARLINK-3575,1 51878U 22022AC  23131.71825422  .00003702  00000-0  25057-3 0  9992,2 51878  53.2159 326.3096 0001001  76.9820 283.1284 15.08836386 67176,6917.891,95.438,540.449,539.064,0.0
51878.0,STARLINK-3575,PAYLOAD,2023-05-11 20:25:03,15.08840032,9.4e-05,53.2161,325.7141,70.4005,289.7089,0.00021215,3.09e-05,0.0,0 STARLINK-3575,1 51878U 22022AC  23131.85073164  .00003090  00000-0  21215-3 0  9997,2 51878  53.2161 325.7141 0000940  70.4005 289.7089 15.08840032 67198,6917.88,95.438,540.396,539.095,0.0
51878.0,STARLINK-3575,PAYLOAD,2023-05-12 18:40:29,15.08787753,9.45e-05,53.217,321.5535,101.7204,258.3894,0.0015484,0.00024405,0.0,0 STARLINK-3575,1 51878U 22022AC  23132.77812032  .00024405  00000-0  15484-2 0  9997,2 51878  53.2170 321.5535 0000945 101.7204 258.3894 15.08787753 67335,6918.04,95.441,540.559,539.251,0.0
51878.0,STARLINK-3575,PAYLOAD,2023-05-13 05:48:09,15.0884308,9.84e-05,53.2166,319.4701,71.6986,288.4113,0.00011736,1.581e-05,0.0,0 STARLINK-3575,1 51878U 22022AC  23133.24177251  .00001581  00000-0  11736-3 0  9994,2 51878  53.2166 319.4701 0000984  71.6986 288.4113 15.08843080 67408,6917.871,95.437,540.417,539.055,0.0
51878.0,STARLINK-3575,PAYLOAD,2023-05-13 18:31:14,15.08840574,8.53e-05,53.2172,317.0886,79.3739,280.735,0.00012511,1.704e-05,0.0,0 STARLINK-3575,1 51878U 22022AC  23133.77169303  .00001704  00000-0  12511-3 0  9990,2 51878  53.2172 317.0886 0000853  79.3739 280.7350 15.08840574 67480,6917.879,95.438,540.334,539.154,0.0
51878.0,STARLINK-3575,PAYLOAD,2023-05-14 05:38:55,15.08846665,9.03e-05,53.2172,315.0081,80.4634,279.6461,6.6203e-05,7.66e-06,0.0,0 STARLINK-3575,1 51878U 22022AC  23134.23536946  .00000766  00000-0  66203-4 0  9998,2 51878  53.2172 315.0081 0000903  80.4634 279.6461 15.08846665 67553,6917.86,95.437,540.35,539.1,0.0
51878.0,STARLINK-3575,PAYLOAD,2023-05-14 18:22:01,15.08842535,0.0001038,53.2179,312.6267,93.8695,266.2416,4.1336e-05,3.7e-06,0.0,0 STARLINK-3575,1 51878U 22022AC  23134.76529226  .00000370  00000-0  41336-4 0  9990,2 51878  53.2179 312.6267 0001038  93.8695 266.2416 15.08842535 67637,6917.873,95.437,540.456,539.02,0.0
51878.0,STARLINK-3575,PAYLOAD,2023-05-15 18:12:48,15.08836821,6.91e-05,53.2166,308.1715,59.7733,300.3327,6.457e-05,7.4e-06,0.0,0 STARLINK-3575,1 51878U 22022AC  23135.75889576  .00000740  00000-0  64570-4 0  9993,2 51878  53.2166 308.1715 0000691  59.7733 300.3327 15.08836821 67787,6917.89,95.438,540.233,539.277,0.0
51878.0,STARLINK-3575,PAYLOAD,2023-05-16 11:42:03,15.08819143,7.01e-05,53.2176,304.8999,72.368,287.7389,0.00026996,4.009e-05,0.0,0 STARLINK-3575,1 51878U 22022AC  23136.48754266  .00004009  00000-0  26996-3 0  9992,2 51878  53.2176 304.8999 0000701  72.3680 287.7389 15.08819143 67895,6917.944,95.439,540.294,539.324,0.0
51878.0,STARLINK-3575,PAYLOAD,2023-05-16 18:03:35,15.08837108,7.92e-05,53.2175,303.7084,72.2305,287.8773,8.4253e-05,1.053e-05,0.0,0 STARLINK-3575,1 51878U 22022AC  23136.75249643  .00001053  00000-0  84253-4 0  9997,2 51878  53.2175 303.7084 0000792  72.2305 287.8773 15.08837108 67934,6917.889,95.438,540.302,539.206,0.0
51878.0,STARLINK-3575,PAYLOAD,2023-05-17 17:54:22,15.08839318,9.71e-05,53.2179,299.2482,72.4201,287.6898,5.8668e-05,6.46e-06,0.0,0 STARLINK-3575,1 51878U 22022AC  23137.74609771  .00000646  00000-0  58668-4 0  9997,2 51878  53.2179 299.2482 0000971  72.4201 287.6898 15.08839318 68083,6917.882,95.438,540.419,539.076,0.0
51878.0,STARLINK-3575,PAYLOAD,2023-05-18 03:26:41,15.08838199,9.35e-05,53.2176,297.4646,71.6756,288.4338,-6.2247e-08,-2.89e-06,0.0,0 STARLINK-3575,1 51878U 22022AC  23138.14354040 -.00000289  00000-0 -62247-7 0  9994,2 51878  53.2176 297.4646 0000935  71.6756 288.4338 15.08838199 68149,6917.886,95.438,540.398,539.104,0.0
51878.0,STARLINK-3575,PAYLOAD,2023-05-18 19:20:33,15.08839561,9.69e-05,53.2171,294.4906,73.7288,286.3811,3.9298e-05,3.38e-06,0.0,0 STARLINK-3575,1 51878U 22022AC  23138.80593956  .00000338  00000-0  39298-4 0  9998,2 51878  53.2171 294.4906 0000969  73.7288 286.3811 15.08839561 68248,6917.882,95.438,540.417,539.076,0.0
